[{"OBJECT_NAME":"FALCONSAT-6","OBJECT_ID":"2018-099BK","EPOCH":"2026-03-09T17:24:38.352096","MEAN_MOTION":15.26532865,"ECCENTRICITY":0.00143698,"INCLINATION":97.3865,"RA_OF_ASC_NODE":145.8165,"ARG_OF_PERICENTER":297.0944,"MEAN_ANOMALY":181.0714,"EPHEMERIS_TYPE":0,"CLASSIFICATION_TYPE":"U","NORAD_CAT_ID":43815,"ELEMENT_SET_NO":999,"REV_AT_EPOCH":39855,"BSTAR":0.00019476898,"MEAN_MOTION_DOT":5.029e-5,"MEAN_MOTION_DDOT":0},{"OBJECT_NAME":"STARLINK-35903","OBJECT_ID":"2025-303F","EPOCH":"2026-03-09T09:41:59.733312","MEAN_MOTION":15.27585974,"ECCENTRICITY":6.613e-5,"INCLINATION":43.0024,"RA_OF_ASC_NODE":312.1475,"ARG_OF_PERICENTER":283.1485,"MEAN_ANOMALY":76.9293,"EPHEMERIS_TYPE":0,"CLASSIFICATION_TYPE":"U","NORAD_CAT_ID":67168,"ELEMENT_SET_NO":999,"REV_AT_EPOCH":1269,"BSTAR":0.00090351764,"MEAN_MOTION_DOT":0.00024688,"MEAN_MOTION_DDOT":0}]
